{
  "type": "FeatureCollection",
  "features": [
    {
      "type": "Feature",
      "properties": {
        "norad_id": 34434,
        "name": "COSMOS 2251 DEB",
        "group": "cosmos-2251-debris",
        "lat": -27.23050441877591,
        "lon": -8.329625518675613,
        "alt_km": 1127.04279637115,
        "timestamp": "2025-12-18T14:52:08.419001+00:00",
        "meta_object_name": "COSMOS 2251 DEB",
        "meta_object_id": "1993-036SB",
        "meta_epoch": "2025-12-18T05:14:30.348384",
        "meta_mean_motion": 13.89841984,
        "meta_eccentricity": 0.02741344,
        "meta_inclination": 74.0621,
        "meta_ra_of_asc_node": 0.8083,
        "meta_arg_of_pericenter": 136.8116,
        "meta_mean_anomaly": 349.4606,
        "meta_ephemeris_type": 0,
        "meta_classification_type": "U",
        "meta_norad_cat_id": 34434,
        "meta_element_set_no": 999,
        "meta_rev_at_epoch": 84042,
        "meta_bstar": 0.0017059654,
        "meta_mean_motion_dot": 2.818e-05,
        "meta_mean_motion_ddot": 0,
        "tle_line1": "1 34434U 93036SB  25352.21840681  .00002818  00000+0  17060-2 0  9990",
        "tle_line2": "2 34434  74.0621   0.8083 0274134 136.8116 349.4606 13.89841984840421"
      },
      "geometry": {
        "type": "Point",
        "coordinates": [
          -8.329625518675613,
          -27.23050441877591
        ]
      }
    },
    {
      "type": "Feature",
      "properties": {
        "norad_id": 34446,
        "name": "COSMOS 2251 DEB",
        "group": "cosmos-2251-debris",
        "lat": -21.042253850448077,
        "lon": 39.935769104572785,
        "alt_km": 765.4737893247129,
        "timestamp": "2025-12-18T14:52:08.419011+00:00",
        "meta_object_name": "COSMOS 2251 DEB",
        "meta_object_id": "1993-036SP",
        "meta_epoch": "2025-12-18T05:01:53.104224",
        "meta_mean_motion": 14.49359249,
        "meta_eccentricity": 0.00508864,
        "meta_inclination": 74.042,
        "meta_ra_of_asc_node": 47.0241,
        "meta_arg_of_pericenter": 183.7768,
        "meta_mean_anomaly": 176.3016,
        "meta_ephemeris_type": 0,
        "meta_classification_type": "U",
        "meta_norad_cat_id": 34446,
        "meta_element_set_no": 999,
        "meta_rev_at_epoch": 88773,
        "meta_bstar": 0.0001060699,
        "meta_mean_motion_dot": 3.83e-06,
        "meta_mean_motion_ddot": 0,
        "tle_line1": "1 34446U 93036SP  25352.20964241  .00000383  00000+0  10607-3 0  9997",
        "tle_line2": "2 34446  74.0420  47.0241 0050886 183.7768 176.3016 14.49359249887732"
      },
      "geometry": {
        "type": "Point",
        "coordinates": [
          39.935769104572785,
          -21.042253850448077
        ]
      }
    },
    {
      "type": "Feature",
      "properties": {
        "norad_id": 34449,
        "name": "COSMOS 2251 DEB",
        "group": "cosmos-2251-debris",
        "lat": 10.819119096703876,
        "lon": 61.83380995224963,
        "alt_km": 581.85488201308,
        "timestamp": "2025-12-18T14:52:08.419021+00:00",
        "meta_object_name": "COSMOS 2251 DEB",
        "meta_object_id": "1993-036SS",
        "meta_epoch": "2025-12-18T05:26:44.166912",
        "meta_mean_motion": 14.95183894,
        "meta_eccentricity": 0.00227497,
        "meta_inclination": 74.0329,
        "meta_ra_of_asc_node": 59.489,
        "meta_arg_of_pericenter": 98.5839,
        "meta_mean_anomaly": 320.4746,
        "meta_ephemeris_type": 0,
        "meta_classification_type": "U",
        "meta_norad_cat_id": 34449,
        "meta_element_set_no": 999,
        "meta_rev_at_epoch": 88775,
        "meta_bstar": 0.0022027298,
        "meta_mean_motion_dot": 0.00024375,
        "meta_mean_motion_ddot": 0,
        "tle_line1": "1 34449U 93036SS  25352.22690008  .00024375  00000+0  22027-2 0  9994",
        "tle_line2": "2 34449  74.0329  59.4890 0022749  98.5839 320.4746 14.95183894887755"
      },
      "geometry": {
        "type": "Point",
        "coordinates": [
          61.83380995224963,
          10.819119096703876
        ]
      }
    },
    {
      "type": "Feature",
      "properties": {
        "norad_id": 34451,
        "name": "COSMOS 2251 DEB",
        "group": "cosmos-2251-debris",
        "lat": -2.8825201485338305,
        "lon": 75.18030202827654,
        "alt_km": 584.0200440937224,
        "timestamp": "2025-12-18T14:52:08.419031+00:00",
        "meta_object_name": "COSMOS 2251 DEB",
        "meta_object_id": "1993-036SU",
        "meta_epoch": "2025-12-18T06:51:25.295616",
        "meta_mean_motion": 14.95889812,
        "meta_eccentricity": 0.00239038,
        "meta_inclination": 74.0467,
        "meta_ra_of_asc_node": 76.679,
        "meta_arg_of_pericenter": 92.8738,
        "meta_mean_anomaly": 267.5183,
        "meta_ephemeris_type": 0,
        "meta_classification_type": "U",
        "meta_norad_cat_id": 34451,
        "meta_element_set_no": 999,
        "meta_rev_at_epoch": 88718,
        "meta_bstar": 0.0022066968,
        "meta_mean_motion_dot": 0.00024879,
        "meta_mean_motion_ddot": 0,
        "tle_line1": "1 34451U 93036SU  25352.28570944  .00024879  00000+0  22067-2 0  9992",
        "tle_line2": "2 34451  74.0467  76.6790 0023903  92.8738 267.5183 14.95889812887185"
      },
      "geometry": {
        "type": "Point",
        "coordinates": [
          75.18030202827654,
          -2.8825201485338305
        ]
      }
    },
    {
      "type": "Feature",
      "properties": {
        "norad_id": 34452,
        "name": "COSMOS 2251 DEB",
        "group": "cosmos-2251-debris",
        "lat": 61.23034195738474,
        "lon": -157.91865487894862,
        "alt_km": 569.4979545191563,
        "timestamp": "2025-12-18T14:52:08.419041+00:00",
        "meta_object_name": "COSMOS 2251 DEB",
        "meta_object_id": "1993-036SV",
        "meta_epoch": "2025-12-18T06:52:20.165664",
        "meta_mean_motion": 15.11822996,
        "meta_eccentricity": 0.00653975,
        "meta_inclination": 74.0327,
        "meta_ra_of_asc_node": 171.3394,
        "meta_arg_of_pericenter": 246.4554,
        "meta_mean_anomaly": 166.6719,
        "meta_ephemeris_type": 0,
        "meta_classification_type": "U",
        "meta_norad_cat_id": 34452,
        "meta_element_set_no": 999,
        "meta_rev_at_epoch": 90746,
        "meta_bstar": 0.00071939759,
        "meta_mean_motion_dot": 0.00012924,
        "meta_mean_motion_ddot": 0,
        "tle_line1": "1 34452U 93036SV  25352.28634451  .00012924  00000+0  71940-3 0  9990",
        "tle_line2": "2 34452  74.0327 171.3394 0065397 246.4554 166.6719 15.11822996907467"
      },
      "geometry": {
        "type": "Point",
        "coordinates": [
          -157.91865487894862,
          61.23034195738474
        ]
      }
    },
    {
      "type": "Feature",
      "properties": {
        "norad_id": 34454,
        "name": "COSMOS 2251 DEB",
        "group": "cosmos-2251-debris",
        "lat": -2.5625696380313028,
        "lon": -93.92379293905309,
        "alt_km": 743.0491210422861,
        "timestamp": "2025-12-18T14:52:08.419051+00:00",
        "meta_object_name": "COSMOS 2251 DEB",
        "meta_object_id": "1993-036SX",
        "meta_epoch": "2025-12-18T04:52:08.566752",
        "meta_mean_motion": 14.38817603,
        "meta_eccentricity": 0.00357665,
        "meta_inclination": 74.0588,
        "meta_ra_of_asc_node": 267.5762,
        "meta_arg_of_pericenter": 329.0404,
        "meta_mean_anomaly": 30.8641,
        "meta_ephemeris_type": 0,
        "meta_classification_type": "U",
        "meta_norad_cat_id": 34454,
        "meta_element_set_no": 999,
        "meta_rev_at_epoch": 88146,
        "meta_bstar": 0.0002030381,
        "meta_mean_motion_dot": 6.03e-06,
        "meta_mean_motion_ddot": 0,
        "tle_line1": "1 34454U 93036SX  25352.20287693  .00000603  00000+0  20304-3 0  9995",
        "tle_line2": "2 34454  74.0588 267.5762 0035766 329.0404  30.8641 14.38817603881468"
      },
      "geometry": {
        "type": "Point",
        "coordinates": [
          -93.92379293905309,
          -2.5625696380313028
        ]
      }
    },
    {
      "type": "Feature",
      "properties": {
        "norad_id": 34459,
        "name": "COSMOS 2251 DEB",
        "group": "cosmos-2251-debris",
        "lat": -72.88796065136788,
        "lon": 131.8784059400279,
        "alt_km": 805.2796886330761,
        "timestamp": "2025-12-18T14:52:08.419061+00:00",
        "meta_object_name": "COSMOS 2251 DEB",
        "meta_object_id": "1993-036TC",
        "meta_epoch": "2025-12-18T03:18:45.536256",
        "meta_mean_motion": 14.00508566,
        "meta_eccentricity": 0.01921072,
        "meta_inclination": 74.0788,
        "meta_ra_of_asc_node": 244.7184,
        "meta_arg_of_pericenter": 313.2886,
        "meta_mean_anomaly": 45.2358,
        "meta_ephemeris_type": 0,
        "meta_classification_type": "U",
        "meta_norad_cat_id": 34459,
        "meta_element_set_no": 999,
        "meta_rev_at_epoch": 85787,
        "meta_bstar": 0.00031046669,
        "meta_mean_motion_dot": 5.16e-06,
        "meta_mean_motion_ddot": 0,
        "tle_line1": "1 34459U 93036TC  25352.13802704  .00000516  00000+0  31047-3 0  9997",
        "tle_line2": "2 34459  74.0788 244.7184 0192107 313.2886  45.2358 14.00508566857879"
      },
      "geometry": {
        "type": "Point",
        "coordinates": [
          131.8784059400279,
          -72.88796065136788
        ]
      }
    }
  ]
}